QIANFAN-25              
1 61558U 24185G   25337.89727796  .00000820  00000+0  49319-3 0  9998
2 61558  88.9811  79.1883 0009001 351.5397   8.5632 14.05897030 68264
QIANFAN-26              
1 61559U 24185H   25337.88855044  .00000466  00000+0  45325-3 0  9995
2 61559  88.9813  80.7040 0006664  53.4484 306.7295 13.77803739 67456
QIANFAN-27              
1 61560U 24185J   25337.77498113  .00000943  00000+0  37957-3 0  9997
2 61560  88.9807  77.9926 0006368 331.9651  28.1200 14.27315103 68881
QIANFAN-28              
1 61561U 24185K   25337.83160668  .00001781  00000+0  71227-3 0  9995
2 61561  88.9825  77.9884 0005663 331.8933  28.1955 14.28006446 68902
QIANFAN-29              
1 61562U 24185L   25337.85152007  .00000276  00000+0  40830-3 0  9990
2 61562  88.9789  82.2269 0011642  81.4368 278.8102 13.51006137 66595
QIANFAN-30              
1 61563U 24185M   25337.81963297  .00000208  00000+0  30884-3 0  9991
2 61563  88.9810  81.7522 0008993  70.4828 289.7294 13.49985209 66867
QIANFAN-31              
1 61564U 24185N   25337.76673396  .00000194  00000+0  25199-3 0  9991
2 61564  88.9794  81.5739 0008277  66.6391 293.5634 13.57959794 66943
QIANFAN-32              
1 61565U 24185P   25337.86709080  .00000275  00000+0  40879-3 0  9995
2 61565  88.9853  81.8788 0011223  91.7454 268.4982 13.50730818 66844
